ORBCOMM FM05            
1 25117U 97084F   24288.87698829  .00004110  00000+0  12317-2 0  9996
2 25117  45.0134 104.3826 0001972 106.4129 253.6939 14.44023470406063
ORBCOMM FM06            
1 25118U 97084G   24288.85296701  .00004769  00000+0  14181-2 0  9999
2 25118  45.0124 104.5458 0001689 135.9900   3.9498 14.44159917406034
ORBCOMM FM07            
1 25119U 97084H   24288.82809422  .00004149  00000+0  12420-2 0  9993
2 25119  45.0123 105.3149 0002309  85.9949 274.1165 14.44056097406046
ORBCOMM FM03            
1 25158U 98007B   24289.47108538  .00003167  00000+0  11847-2 0  9995
2 25158 107.9705 353.3106 0047717 314.1339  45.5881 14.33117270389104
ORBCOMM FM04            
1 25159U 98007C   24288.59264665  .00002423  00000+0  91514-3 0  9996
2 25159 107.9684 354.5574 0043410 313.0095  46.7410 14.33377866389016
ORBCOMM FM17            
1 25413U 98046A   24289.20728429  .00002382  00000+0  89626-3 0  9999
2 25413  44.9951 332.9172 0000900 340.3775  19.7037 14.33953350368161
ORBCOMM FM18            
1 25414U 98046B   24288.60719860  .00003524  00000+0  12250-2 0  9999
2 25414  44.9920 259.3550 0002349 113.6568 246.4526 14.36992184368905
ORBCOMM FM19            
1 25415U 98046C   24289.16094359  .00003897  00000+0  13540-2 0  9997
2 25415  44.9930 258.3598 0001356  92.0910 335.6094 14.36828060369145
